start=new Date('2023-03-19T00:00:00.000Z').valueOf();
sats=[{"TLE_LINE2":"2 55670  70.0004  69.2590 0003540 264.5364  95.5428 15.69930599  5351","REV_AT_EPOCH":"535","NORAD_CAT_ID":"55670","OBJECT_NAME":"STARLINK-5423","APOAPSIS":"361.483","MEAN_MOTION_DOT":"0.00002976","TIME_SYSTEM":"UTC","PERIAPSIS":"356.713","REF_FRAME":"TEME","PERIOD":"91.724","BSTAR":"0.00002650500000","EPHEMERIS_TYPE":"0","ELEMENT_SET_NO":"999","RCS_SIZE":"LARGE","LAUNCH_DATE":"2023-02-17","MEAN_ELEMENT_THEORY":"SGP4","MEAN_ANOMALY":"95.5428","TLE_LINE1":"1 55670U 23021AU  23077.45931979  .00002976  00000-0  26505-4 0  9993","SEMIMAJOR_AXIS":"6737.233","COUNTRY_CODE":"US","GP_ID":"228406465","CENTER_NAME":"EARTH","ECCENTRICITY":"0.00035400","OBJECT_ID":"2023-021AU","OBJECT_TYPE":"PAYLOAD","SITE":"AFWTR","MEAN_MOTION_DDOT":"0.0000000000000","DECAY_DATE":null,"INCLINATION":"70.0004","MEAN_MOTION":"15.69930599","RA_OF_ASC_NODE":"69.2590","ARG_OF_PERICENTER":"264.5364","CLASSIFICATION_TYPE":"U","EPOCH":"2023-03-18T11:01:25.229856","FILE":"3864479"},{"INCLINATION":"70.0008","DECAY_DATE":null,"MEAN_MOTION_DDOT":"0.0000000000000","MEAN_MOTION":"15.69931929","ARG_OF_PERICENTER":"269.2881","RA_OF_ASC_NODE":"68.0025","FILE":"3864479","EPOCH":"2023-03-18T21:42:46.316736","CLASSIFICATION_TYPE":"U","MEAN_ELEMENT_THEORY":"SGP4","GP_ID":"228406708","COUNTRY_CODE":"US","CENTER_NAME":"EARTH","SEMIMAJOR_AXIS":"6737.229","TLE_LINE1":"1 55671U 23021AV  23077.90470274  .00001771  00000-0  16489-4 0  9992","MEAN_ANOMALY":"90.7902","ECCENTRICITY":"0.00036020","SITE":"AFWTR","OBJECT_TYPE":"PAYLOAD","OBJECT_ID":"2023-021AV","ELEMENT_SET_NO":"999","BSTAR":"0.00001648900000","EPHEMERIS_TYPE":"0","PERIOD":"91.724","REF_FRAME":"TEME","RCS_SIZE":"LARGE","LAUNCH_DATE":"2023-02-17","REV_AT_EPOCH":"542","NORAD_CAT_ID":"55671","TLE_LINE2":"2 55671  70.0008  68.0025 0003602 269.2881  90.7902 15.69931929  5421","MEAN_MOTION_DOT":"0.00001771","OBJECT_NAME":"STARLINK-5460","APOAPSIS":"361.520","PERIAPSIS":"356.667","TIME_SYSTEM":"UTC"},{"MEAN_MOTION_DDOT":"0.0000000000000","DECAY_DATE":null,"INCLINATION":"69.9992","MEAN_MOTION":"15.69937728","RA_OF_ASC_NODE":"68.5406","ARG_OF_PERICENTER":"267.4712","CLASSIFICATION_TYPE":"U","EPOCH":"2023-03-18T17:07:39.965664","FILE":"3864479","MEAN_ELEMENT_THEORY":"SGP4","MEAN_ANOMALY":"92.6131","TLE_LINE1":"1 55672U 23021AW  23077.71365701 -.00001831  00000-0 -13457-4 0  9991","GP_ID":"228407464","COUNTRY_CODE":"US","CENTER_NAME":"EARTH","SEMIMAJOR_AXIS":"6737.212","ECCENTRICITY":"0.00030780","OBJECT_ID":"2023-021AW","SITE":"AFWTR","OBJECT_TYPE":"PAYLOAD","PERIOD":"91.723","REF_FRAME":"TEME","ELEMENT_SET_NO":"999","BSTAR":"-0.00001345700000","EPHEMERIS_TYPE":"0","RCS_SIZE":"LARGE","LAUNCH_DATE":"2023-02-17","TLE_LINE2":"2 55672  69.9992  68.5406 0003078 267.4712  92.6131 15.69937728  5393","NORAD_CAT_ID":"55672","REV_AT_EPOCH":"539","MEAN_MOTION_DOT":"-0.00001831","OBJECT_NAME":"STARLINK-5461","APOAPSIS":"361.151","TIME_SYSTEM":"UTC","PERIAPSIS":"357.003"},{"TLE_LINE2":"2 55673  70.0017  68.0045 0003212 267.0011  93.0817 15.69927409  5422","NORAD_CAT_ID":"55673","REV_AT_EPOCH":"542","APOAPSIS":"361.271","OBJECT_NAME":"STARLINK-5463","MEAN_MOTION_DOT":"0.00000685","TIME_SYSTEM":"UTC","PERIAPSIS":"356.943","REF_FRAME":"TEME","PERIOD":"91.724","BSTAR":"0.00000746270000","EPHEMERIS_TYPE":"0","ELEMENT_SET_NO":"999","RCS_SIZE":"LARGE","LAUNCH_DATE":"2023-02-17","MEAN_ELEMENT_THEORY":"SGP4","MEAN_ANOMALY":"93.0817","TLE_LINE1":"1 55673U 23021AX  23077.90512759  .00000685  00000-0  74627-5 0  9991","SEMIMAJOR_AXIS":"6737.242","GP_ID":"228405716","CENTER_NAME":"EARTH","COUNTRY_CODE":"US","ECCENTRICITY":"0.00032120","OBJECT_ID":"2023-021AX","OBJECT_TYPE":"PAYLOAD","SITE":"AFWTR","DECAY_DATE":null,"MEAN_MOTION_DDOT":"0.0000000000000","INCLINATION":"70.0017","MEAN_MOTION":"15.69927409","RA_OF_ASC_NODE":"68.0045","ARG_OF_PERICENTER":"267.0011","CLASSIFICATION_TYPE":"U","FILE":"3864479","EPOCH":"2023-03-18T21:43:23.023776"},{"LAUNCH_DATE":"2023-02-17","RCS_SIZE":"LARGE","REF_FRAME":"TEME","PERIOD":"91.724","BSTAR":"0.00000513870000","EPHEMERIS_TYPE":"0","ELEMENT_SET_NO":"999","TIME_SYSTEM":"UTC","PERIAPSIS":"356.784","APOAPSIS":"361.431","OBJECT_NAME":"STARLINK-5462","MEAN_MOTION_DOT":"0.00000405","TLE_LINE2":"2 55674  70.0004  68.5406 0003449 266.3205  93.7596 15.69927099  5396","REV_AT_EPOCH":"539","NORAD_CAT_ID":"55674","CLASSIFICATION_TYPE":"U","FILE":"3864479","EPOCH":"2023-03-18T17:07:49.317600","RA_OF_ASC_NODE":"68.5406","ARG_OF_PERICENTER":"266.3205","MEAN_MOTION":"15.69927099","DECAY_DATE":null,"MEAN_MOTION_DDOT":"0.0000000000000","INCLINATION":"70.0004","OBJECT_ID":"2023-021AY","OBJECT_TYPE":"PAYLOAD","SITE":"AFWTR","ECCENTRICITY":"0.00034490","TLE_LINE1":"1 55674U 23021AY  23077.71376525  .00000405  00000-0  51387-5 0  9998","MEAN_ANOMALY":"93.7596","SEMIMAJOR_AXIS":"6737.243","CENTER_NAME":"EARTH","GP_ID":"228406966","COUNTRY_CODE":"US","MEAN_ELEMENT_THEORY":"SGP4"},{"RCS_SIZE":"LARGE","LAUNCH_DATE":"2023-02-17","PERIOD":"91.724","REF_FRAME":"TEME","ELEMENT_SET_NO":"999","EPHEMERIS_TYPE":"0","BSTAR":"-0.00000066661000","MEAN_MOTION_DOT":"-0.00000293","APOAPSIS":"361.075","OBJECT_NAME":"STARLINK-5232","TIME_SYSTEM":"UTC","PERIAPSIS":"357.132","TLE_LINE2":"2 55675  70.0009  68.5420 0002926 270.8933  89.1927 15.69928614  5396","NORAD_CAT_ID":"55675","REV_AT_EPOCH":"539","RA_OF_ASC_NODE":"68.5420","ARG_OF_PERICENTER":"270.8933","CLASSIFICATION_TYPE":"U","EPOCH":"2023-03-18T17:08:16.702944","FILE":"3864479","DECAY_DATE":null,"MEAN_MOTION_DDOT":"0.0000000000000","INCLINATION":"70.0009","MEAN_MOTION":"15.69928614","ECCENTRICITY":"0.00029260","OBJECT_ID":"2023-021AZ","SITE":"AFWTR","OBJECT_TYPE":"PAYLOAD","MEAN_ELEMENT_THEORY":"SGP4","MEAN_ANOMALY":"89.1927","TLE_LINE1":"1 55675U 23021AZ  23077.71408221 -.00000293  00000-0 -66661-6 0  9997","GP_ID":"228407209","CENTER_NAME":"EARTH","COUNTRY_CODE":"US","SEMIMAJOR_AXIS":"6737.238"},{"MEAN_MOTION_DDOT":"0.0000000000000","DECAY_DATE":null,"INCLINATION":"70.0003","MEAN_MOTION":"15.69924458","RA_OF_ASC_NODE":"69.2566","ARG_OF_PERICENTER":"258.7973","CLASSIFICATION_TYPE":"U","FILE":"3864479","EPOCH":"2023-03-18T11:00:21.667104","MEAN_ELEMENT_THEORY":"SGP4","TLE_LINE1":"1 55676U 23021BA  23077.45858411  .00000688  00000-0  74921-5 0  9992","MEAN_ANOMALY":"101.2782","CENTER_NAME":"EARTH","GP_ID":"228407550","COUNTRY_CODE":"US","SEMIMAJOR_AXIS":"6737.250","ECCENTRICITY":"0.00039220","OBJECT_ID":"2023-021BA","SITE":"AFWTR","OBJECT_TYPE":"PAYLOAD","PERIOD":"91.724","REF_FRAME":"TEME","ELEMENT_SET_NO":"999","BSTAR":"0.00000749210000","EPHEMERIS_TYPE":"0","RCS_SIZE":"LARGE","LAUNCH_DATE":"2023-02-17","TLE_LINE2":"2 55676  70.0003  69.2566 0003922 258.7973 101.2782 15.69924458  5359","NORAD_CAT_ID":"55676","REV_AT_EPOCH":"535","MEAN_MOTION_DOT":"0.00000688","OBJECT_NAME":"STARLINK-5300","APOAPSIS":"361.757","TIME_SYSTEM":"UTC","PERIAPSIS":"356.473"},{"DECAY_DATE":null,"MEAN_MOTION_DDOT":"0.0000000000000","INCLINATION":"70.0011","MEAN_MOTION":"15.69932720","RA_OF_ASC_NODE":"69.2551","ARG_OF_PERICENTER":"267.3304","CLASSIFICATION_TYPE":"U","EPOCH":"2023-03-18T11:00:12.389472","FILE":"3864479","MEAN_ELEMENT_THEORY":"SGP4","TLE_LINE1":"1 55677U 23021BB  23077.45847673  .00005827  00000-0  50180-4 0  9991","MEAN_ANOMALY":"92.7485","GP_ID":"228406217","CENTER_NAME":"EARTH","COUNTRY_CODE":"US","SEMIMAJOR_AXIS":"6737.226","ECCENTRICITY":"0.00035470","OBJECT_ID":"2023-021BB","SITE":"AFWTR","OBJECT_TYPE":"PAYLOAD","PERIOD":"91.724","REF_FRAME":"TEME","ELEMENT_SET_NO":"999","BSTAR":"0.00005018000000","EPHEMERIS_TYPE":"0","RCS_SIZE":"LARGE","LAUNCH_DATE":"2023-02-17","TLE_LINE2":"2 55677  70.0011  69.2551 0003547 267.3304  92.7485 15.69932720  5355","REV_AT_EPOCH":"535","NORAD_CAT_ID":"55677","MEAN_MOTION_DOT":"0.00005827","APOAPSIS":"361.481","OBJECT_NAME":"STARLINK-5324","TIME_SYSTEM":"UTC","PERIAPSIS":"356.702"},{"ELEMENT_SET_NO":"999","BSTAR":"-0.00000588000000","EPHEMERIS_TYPE":"0","PERIOD":"91.724","REF_FRAME":"TEME","LAUNCH_DATE":"2023-02-17","RCS_SIZE":"LARGE","REV_AT_EPOCH":"539","NORAD_CAT_ID":"55678","TLE_LINE2":"2 55678  69.9989  68.5423 0003252 269.3447  90.7376 15.69933776  5393","PERIAPSIS":"356.898","TIME_SYSTEM":"UTC","MEAN_MOTION_DOT":"-0.00000920","OBJECT_NAME":"STARLINK-5314","APOAPSIS":"361.279","MEAN_MOTION":"15.69933776","INCLINATION":"69.9989","MEAN_MOTION_DDOT":"0.0000000000000","DECAY_DATE":null,"FILE":"3864479","EPOCH":"2023-03-18T17:07:58.260000","CLASSIFICATION_TYPE":"U","ARG_OF_PERICENTER":"269.3447","RA_OF_ASC_NODE":"68.5423","GP_ID":"228406466","COUNTRY_CODE":"US","CENTER_NAME":"EARTH","SEMIMAJOR_AXIS":"6737.223","TLE_LINE1":"1 55678U 23021BC  23077.71386875 -.00000920  00000-0 -58800-5 0  9992","MEAN_ANOMALY":"90.7376","MEAN_ELEMENT_THEORY":"SGP4","SITE":"AFWTR","OBJECT_TYPE":"PAYLOAD","OBJECT_ID":"2023-021BC","ECCENTRICITY":"0.00032520"},{"PERIAPSIS":"373.849","TIME_SYSTEM":"UTC","MEAN_MOTION_DOT":"0.00081601","APOAPSIS":"376.901","OBJECT_NAME":"STARLINK-30050","NORAD_CAT_ID":"55695","REV_AT_EPOCH":"130","TLE_LINE2":"2 55695  43.0018 170.3248 0002260 346.5210 346.0154 15.64258180  1301","LAUNCH_DATE":"2023-02-27","RCS_SIZE":"LARGE","ELEMENT_SET_NO":"999","BSTAR":"0.00082781000000","EPHEMERIS_TYPE":"0","PERIOD":"92.056","REF_FRAME":"TEME","SITE":"AFETR","OBJECT_TYPE":"PAYLOAD","OBJECT_ID":"2023-026A","ECCENTRICITY":"0.00022600","CENTER_NAME":"EARTH","GP_ID":"228406968","COUNTRY_CODE":"US","SEMIMAJOR_AXIS":"6753.510","MEAN_ANOMALY":"346.0154","TLE_LINE1":"1 55695U 23026A   23077.91667824  .00081601  00000-0  82781-3 0  9990","MEAN_ELEMENT_THEORY":"SGP4","FILE":"3864479","EPOCH":"2023-03-18T22:00:00.999936","CLASSIFICATION_TYPE":"U","ARG_OF_PERICENTER":"346.5210","RA_OF_ASC_NODE":"170.3248","MEAN_MOTION":"15.64258180","INCLINATION":"43.0018","MEAN_MOTION_DDOT":"0.0000000000000","DECAY_DATE":null}];
